{"fetched_at":"2026-03-29T16:36:15Z","count":15609,"tles":[{"name":"STARLINK-32244","line1":"1 60411U 24141P   26087.60457743  .00000283  00000+0  21673-4 0  9998","line2":"2 60411  53.1602 154.9370 0001253  68.6258 291.4876 15.30192301 92470","category":"Starlink"}]}